*******************************************************************************
Ephemeris / WWW_USER Mon Mar 24 08:14:07 2025 Pasadena, USA      / Horizons    
*******************************************************************************
Target body name: (2018 VN1)                      {source: JPL#9}
Center body name: Earth (399)                     {source: DE441}
Center-site name: Mauna Kea
*******************************************************************************
Start time      : A.D. 2018-Dec-06 03:52:00.0000 UT      
Stop  time      : A.D. 2018-Dec-06 16:33:00.0000 UT      
Step-size       : 1 minutes
*******************************************************************************
Target pole/equ : undefined
Target radii    : undefined                                                    
Center geodetic : 204.5278, 19.8260847, 4.21024   {E-lon(deg),Lat(deg),Alt(km)}
Center cylindric: 204.5278, 6006.35451, 2151.0229 {E-lon(deg),Dxy(km),Dz(km)}
Center pole/equ : ITRF93                          {East-longitude positive}
Center radii    : 6378.137, 6378.137, 6356.752 km {Equator_a, b, pole_c}       
Target primary  : Sun
Vis. interferer : MOON (R_eq= 1737.400) km        {source: DE441}
Rel. light bend : Sun                             {source: DE441}
Rel. lght bnd GM: 1.3271E+11 km^3/s^2                                          
Small-body perts: Yes                             {source: SB441-N16}
Atmos refraction: NO (AIRLESS)
RA format       : HMS
Time format     : CAL 
Calendar mode   : Mixed Julian/Gregorian
RTS-only print  : NO       
EOP file        : eop.250321.p250617                                           
EOP coverage    : DATA-BASED 1962-JAN-20 TO 2025-MAR-21. PREDICTS-> 2025-JUN-16
Units conversion: 1 au= 149597870.700 km, c= 299792.458 km/s, 1 day= 86400.0 s 
Table cut-offs 1: Elevation (-90.0deg=NO ),Airmass (>38.000=NO), Daylight (YES)
Table cut-offs 2: Solar elongation (  0.0,180.0=NO ),Local Hour Angle( 0.0=NO )
Table cut-offs 3: RA/DEC angular rate (     0.0=NO )                           
*******************************************************************************
Initial IAU76/J2000 heliocentric ecliptic osculating elements (au, days, deg.):
  EPOCH=  2458428.5 ! 2018-Nov-06.00 (TDB)         Residual RMS= .27219        
   EC= .3884608603153671   QR= 1.011903292497374   TP= 2458433.1511739166      
   OM= 228.4137592171332   W=  180.2469578564258   IN= 3.355185598403424       
  Equivalent ICRF heliocentric cartesian coordinates (au, au/d):
   X= 7.364971791856070E-01  Y= 6.361813492829538E-01  Z= 2.815132693616627E-01
  VX=-1.417073247356795E-02 VY= 1.354428742085641E-02 VZ= 4.590405825264917E-03
Asteroid physical parameters (km, seconds, rotational period in hours):        
   GM= n.a.                RAD= n.a.               ROTPER= n.a.                
   H= 26.2                 G= .150                 B-V= n.a.                   
                           ALBEDO= n.a.            STYP= n.a.                  
*******************************************************************************
 Date__(UT)__HR:MN     R.A._________(ICRF)_________DEC
******************************************************
$$SOE
 2018-Dec-06 03:52 C   07 51 33.605307 +01 35 11.30078
 2018-Dec-06 03:53 C   07 51 33.652685 +01 35 10.98003
 2018-Dec-06 03:54 C   07 51 33.699985 +01 35 10.65934
 2018-Dec-06 03:55 C   07 51 33.747205 +01 35 10.33872
 2018-Dec-06 03:56 C   07 51 33.794345 +01 35 10.01817
 2018-Dec-06 03:57 C   07 51 33.841404 +01 35 09.69769
 2018-Dec-06 03:58 C   07 51 33.888383 +01 35 09.37727
 2018-Dec-06 03:59 C   07 51 33.935281 +01 35 09.05693
 2018-Dec-06 04:00 C   07 51 33.982097 +01 35 08.73665
 2018-Dec-06 04:01 C   07 51 34.028832 +01 35 08.41644
 2018-Dec-06 04:02 C   07 51 34.075484 +01 35 08.09630
 2018-Dec-06 04:03 C   07 51 34.122054 +01 35 07.77622
 2018-Dec-06 04:04 C   07 51 34.168540 +01 35 07.45621
 2018-Dec-06 04:05 C   07 51 34.214943 +01 35 07.13627
 2018-Dec-06 04:06 C   07 51 34.261263 +01 35 06.81639
 2018-Dec-06 04:07 N   07 51 34.307498 +01 35 06.49658
 2018-Dec-06 04:08 N   07 51 34.353649 +01 35 06.17684
 2018-Dec-06 04:09 N   07 51 34.399715 +01 35 05.85717
 2018-Dec-06 04:10 N   07 51 34.445696 +01 35 05.53756
 2018-Dec-06 04:11 N   07 51 34.491591 +01 35 05.21801
 2018-Dec-06 04:12 N   07 51 34.537400 +01 35 04.89853
 2018-Dec-06 04:13 N   07 51 34.583123 +01 35 04.57912
 2018-Dec-06 04:14 N   07 51 34.628759 +01 35 04.25977
 2018-Dec-06 04:15 N   07 51 34.674308 +01 35 03.94049
 2018-Dec-06 04:16 N   07 51 34.719770 +01 35 03.62128
 2018-Dec-06 04:17 N   07 51 34.765144 +01 35 03.30212
 2018-Dec-06 04:18 N   07 51 34.810430 +01 35 02.98304
 2018-Dec-06 04:19 N   07 51 34.855627 +01 35 02.66401
 2018-Dec-06 04:20 N   07 51 34.900736 +01 35 02.34506
 2018-Dec-06 04:21 N   07 51 34.945755 +01 35 02.02616
 2018-Dec-06 04:22 N   07 51 34.990685 +01 35 01.70733
 2018-Dec-06 04:23 N   07 51 35.035525 +01 35 01.38857
 2018-Dec-06 04:24 N   07 51 35.080275 +01 35 01.06987
 2018-Dec-06 04:25 N   07 51 35.124934 +01 35 00.75123
 2018-Dec-06 04:26 N   07 51 35.169503 +01 35 00.43265
 2018-Dec-06 04:27 N   07 51 35.213980 +01 35 00.11414
 2018-Dec-06 04:28 N   07 51 35.258366 +01 34 59.79570
 2018-Dec-06 04:29 N   07 51 35.302660 +01 34 59.47731
 2018-Dec-06 04:30 N   07 51 35.346861 +01 34 59.15899
 2018-Dec-06 04:31 N   07 51 35.390970 +01 34 58.84073
 2018-Dec-06 04:32 N   07 51 35.434987 +01 34 58.52253
 2018-Dec-06 04:33 N   07 51 35.478910 +01 34 58.20440
 2018-Dec-06 04:34 A   07 51 35.522739 +01 34 57.88633
 2018-Dec-06 04:35 A   07 51 35.566475 +01 34 57.56832
 2018-Dec-06 04:36 A   07 51 35.610116 +01 34 57.25037
 2018-Dec-06 04:37 A   07 51 35.653663 +01 34 56.93248
 2018-Dec-06 04:38 A   07 51 35.697115 +01 34 56.61465
 2018-Dec-06 04:39 A   07 51 35.740472 +01 34 56.29689
 2018-Dec-06 04:40 A   07 51 35.783733 +01 34 55.97919
 2018-Dec-06 04:41 A   07 51 35.826899 +01 34 55.66154
 2018-Dec-06 04:42 A   07 51 35.869968 +01 34 55.34396
 2018-Dec-06 04:43 A   07 51 35.912942 +01 34 55.02644
 2018-Dec-06 04:44 A   07 51 35.955818 +01 34 54.70898
 2018-Dec-06 04:45 A   07 51 35.998597 +01 34 54.39158
 2018-Dec-06 04:46 A   07 51 36.041279 +01 34 54.07424
 2018-Dec-06 04:47 A   07 51 36.083864 +01 34 53.75696
 2018-Dec-06 04:48 A   07 51 36.126350 +01 34 53.43974
 2018-Dec-06 04:49 A   07 51 36.168739 +01 34 53.12258
 2018-Dec-06 04:50 A   07 51 36.211028 +01 34 52.80547
 2018-Dec-06 04:51 A   07 51 36.253219 +01 34 52.48843
 2018-Dec-06 04:52 A   07 51 36.295311 +01 34 52.17145
 2018-Dec-06 04:53 A   07 51 36.337303 +01 34 51.85452
 2018-Dec-06 04:54 A   07 51 36.379196 +01 34 51.53765
 2018-Dec-06 04:55 A   07 51 36.420989 +01 34 51.22085
 2018-Dec-06 04:56 A   07 51 36.462681 +01 34 50.90409
 2018-Dec-06 04:57 A   07 51 36.504273 +01 34 50.58740
 2018-Dec-06 04:58 A   07 51 36.545764 +01 34 50.27077
 2018-Dec-06 04:59 A   07 51 36.587154 +01 34 49.95419
 2018-Dec-06 05:00 A   07 51 36.628442 +01 34 49.63767
 2018-Dec-06 05:01     07 51 36.669629 +01 34 49.32121
 2018-Dec-06 05:02     07 51 36.710713 +01 34 49.00481
 2018-Dec-06 05:03     07 51 36.751696 +01 34 48.68846
 2018-Dec-06 05:04     07 51 36.792576 +01 34 48.37217
 2018-Dec-06 05:05     07 51 36.833353 +01 34 48.05593
 2018-Dec-06 05:06     07 51 36.874027 +01 34 47.73975
 2018-Dec-06 05:07     07 51 36.914598 +01 34 47.42363
 2018-Dec-06 05:08     07 51 36.955065 +01 34 47.10757
 2018-Dec-06 05:09     07 51 36.995428 +01 34 46.79156
 2018-Dec-06 05:10     07 51 37.035687 +01 34 46.47560
 2018-Dec-06 05:11     07 51 37.075842 +01 34 46.15970
 2018-Dec-06 05:12     07 51 37.115892 +01 34 45.84386
 2018-Dec-06 05:13     07 51 37.155837 +01 34 45.52807
 2018-Dec-06 05:14     07 51 37.195678 +01 34 45.21234
 2018-Dec-06 05:15     07 51 37.235412 +01 34 44.89666
 2018-Dec-06 05:16     07 51 37.275041 +01 34 44.58103
 2018-Dec-06 05:17     07 51 37.314565 +01 34 44.26546
 2018-Dec-06 05:18     07 51 37.353982 +01 34 43.94995
 2018-Dec-06 05:19     07 51 37.393292 +01 34 43.63448
 2018-Dec-06 05:20     07 51 37.432496 +01 34 43.31908
 2018-Dec-06 05:21     07 51 37.471593 +01 34 43.00372
 2018-Dec-06 05:22     07 51 37.510583 +01 34 42.68842
 2018-Dec-06 05:23     07 51 37.549466 +01 34 42.37317
 2018-Dec-06 05:24     07 51 37.588241 +01 34 42.05798
 2018-Dec-06 05:25     07 51 37.626909 +01 34 41.74283
 2018-Dec-06 05:26     07 51 37.665468 +01 34 41.42774
 2018-Dec-06 05:27     07 51 37.703919 +01 34 41.11270
 2018-Dec-06 05:28     07 51 37.742262 +01 34 40.79772
 2018-Dec-06 05:29     07 51 37.780495 +01 34 40.48279
 2018-Dec-06 05:30     07 51 37.818620 +01 34 40.16790
 2018-Dec-06 05:31     07 51 37.856636 +01 34 39.85307
 2018-Dec-06 05:32     07 51 37.894542 +01 34 39.53829
 2018-Dec-06 05:33     07 51 37.932339 +01 34 39.22357
 2018-Dec-06 05:34     07 51 37.970026 +01 34 38.90889
 2018-Dec-06 05:35     07 51 38.007603 +01 34 38.59427
 2018-Dec-06 05:36     07 51 38.045070 +01 34 38.27969
 2018-Dec-06 05:37     07 51 38.082426 +01 34 37.96517
 2018-Dec-06 05:38     07 51 38.119672 +01 34 37.65069
 2018-Dec-06 05:39     07 51 38.156807 +01 34 37.33627
 2018-Dec-06 05:40     07 51 38.193831 +01 34 37.02189
 2018-Dec-06 05:41     07 51 38.230743 +01 34 36.70757
 2018-Dec-06 05:42     07 51 38.267544 +01 34 36.39329
 2018-Dec-06 05:43     07 51 38.304234 +01 34 36.07907
 2018-Dec-06 05:44     07 51 38.340812 +01 34 35.76489
 2018-Dec-06 05:45     07 51 38.377277 +01 34 35.45076
 2018-Dec-06 05:46     07 51 38.413631 +01 34 35.13668
 2018-Dec-06 05:47     07 51 38.449872 +01 34 34.82265
 2018-Dec-06 05:48     07 51 38.486000 +01 34 34.50867
 2018-Dec-06 05:49     07 51 38.522016 +01 34 34.19473
 2018-Dec-06 05:50     07 51 38.557919 +01 34 33.88085
 2018-Dec-06 05:51     07 51 38.593708 +01 34 33.56701
 2018-Dec-06 05:52     07 51 38.629385 +01 34 33.25321
 2018-Dec-06 05:53     07 51 38.664948 +01 34 32.93947
 2018-Dec-06 05:54     07 51 38.700397 +01 34 32.62577
